IRIDIUM 106             
1 41917U 17003A   25356.51136853  .00000061  00000+0  14741-4 0  9993
2 41917  86.3989 162.3741 0002430  95.1942 264.9531 14.34218128467887
IRIDIUM 103             
1 41918U 17003B   25356.49868824  .00000324  00000+0  10874-3 0  9995
2 41918  86.3989 162.2797 0001789 102.8198 257.3198 14.34218603467909
IRIDIUM 109             
1 41919U 17003C   25356.22595295  .00000038  00000+0  64887-5 0  9993
2 41919  86.3996 162.4503 0001843  95.3996 264.7411 14.34218414467830
IRIDIUM 102             
1 41920U 17003D   25356.54308086  .00000050  00000+0  10932-4 0  9995
2 41920  86.3989 162.2451 0002001  89.8985 270.2440 14.34217597467966
IRIDIUM 105             
1 41921U 17003E   25356.30451730  .00000306  00000+0  10230-3 0  9999
2 41921  86.3985 130.8365 0001967  96.7523 263.3897 14.34217637469789
IRIDIUM 104             
1 41922U 17003F   25356.48599694 -.00000020  00000+0 -14032-4 0  9991
2 41922  86.3994 162.3089 0001551  93.7658 266.3715 14.34217082467940
IRIDIUM 114             
1 41923U 17003G   25356.49233405  .00000011  00000+0 -30227-5 0  9992
2 41923  86.3990 162.2900 0001856  94.8171 265.3237 14.34216890467920
IRIDIUM 108             
1 41924U 17003H   25356.38109342  .00000242  00000+0  79269-4 0  9996
2 41924  86.3973 130.6939 0002093  89.5732 270.5704 14.34218434469768
