<?xml version="1.0" encoding="UTF-8"?>
<ndm xmlns:xsi="http://www.w3.org/2001/XMLSchema-instance" xsi:noNamespaceSchemaLocation="https://sanaregistry.org/r/ndmxml_unqualified/ndmxml-2.0.0-master-2.0.xsd">
<omm id="CCSDS_OMM_VERS" version="2.0">
<header><CREATION_DATE/><ORIGINATOR/></header><body><segment><metadata><OBJECT_NAME>IRIDIUM 106</OBJECT_NAME><OBJECT_ID>2017-003A</OBJECT_ID><CENTER_NAME>EARTH</CENTER_NAME><REF_FRAME>TEME</REF_FRAME><TIME_SYSTEM>UTC</TIME_SYSTEM><MEAN_ELEMENT_THEORY>SGP4</MEAN_ELEMENT_THEORY></metadata><data><meanElements><EPOCH>2025-12-22T12:16:22.240992</EPOCH><MEAN_MOTION>14.34218128</MEAN_MOTION><ECCENTRICITY>.00024303</ECCENTRICITY><INCLINATION>86.3989</INCLINATION><RA_OF_ASC_NODE>162.3741</RA_OF_ASC_NODE><ARG_OF_PERICENTER>95.1942</ARG_OF_PERICENTER><MEAN_ANOMALY>264.9531</MEAN_ANOMALY></meanElements><tleParameters><EPHEMERIS_TYPE>0</EPHEMERIS_TYPE><CLASSIFICATION_TYPE>U</CLASSIFICATION_TYPE><NORAD_CAT_ID>41917</NORAD_CAT_ID><ELEMENT_SET_NO>999</ELEMENT_SET_NO><REV_AT_EPOCH>46788</REV_AT_EPOCH><BSTAR>.14740982E-4</BSTAR><MEAN_MOTION_DOT>.61E-6</MEAN_MOTION_DOT><MEAN_MOTION_DDOT>0</MEAN_MOTION_DDOT></tleParameters></data></segment></body></omm>
<omm id="CCSDS_OMM_VERS" version="2.0">
<header><CREATION_DATE/><ORIGINATOR/></header><body><segment><metadata><OBJECT_NAME>IRIDIUM 103</OBJECT_NAME><OBJECT_ID>2017-003B</OBJECT_ID><CENTER_NAME>EARTH</CENTER_NAME><REF_FRAME>TEME</REF_FRAME><TIME_SYSTEM>UTC</TIME_SYSTEM><MEAN_ELEMENT_THEORY>SGP4</MEAN_ELEMENT_THEORY></metadata><data><meanElements><EPOCH>2025-12-22T11:58:06.663936</EPOCH><MEAN_MOTION>14.34218603</MEAN_MOTION><ECCENTRICITY>.00017894</ECCENTRICITY><INCLINATION>86.3989</INCLINATION><RA_OF_ASC_NODE>162.2797</RA_OF_ASC_NODE><ARG_OF_PERICENTER>102.8198</ARG_OF_PERICENTER><MEAN_ANOMALY>257.3198</MEAN_ANOMALY></meanElements><tleParameters><EPHEMERIS_TYPE>0</EPHEMERIS_TYPE><CLASSIFICATION_TYPE>U</CLASSIFICATION_TYPE><NORAD_CAT_ID>41918</NORAD_CAT_ID><ELEMENT_SET_NO>999</ELEMENT_SET_NO><REV_AT_EPOCH>46790</REV_AT_EPOCH><BSTAR>.1087365E-3</BSTAR><MEAN_MOTION_DOT>.324E-5</MEAN_MOTION_DOT><MEAN_MOTION_DDOT>0</MEAN_MOTION_DDOT></tleParameters></data></segment></body></omm>
<omm id="CCSDS_OMM_VERS" version="2.0">
<header><CREATION_DATE/><ORIGINATOR/></header><body><segment><metadata><OBJECT_NAME>IRIDIUM 109</OBJECT_NAME><OBJECT_ID>2017-003C</OBJECT_ID><CENTER_NAME>EARTH</CENTER_NAME><REF_FRAME>TEME</REF_FRAME><TIME_SYSTEM>UTC</TIME_SYSTEM><MEAN_ELEMENT_THEORY>SGP4</MEAN_ELEMENT_THEORY></metadata><data><meanElements><EPOCH>2025-12-22T05:25:22.334880</EPOCH><MEAN_MOTION>14.34218414</MEAN_MOTION><ECCENTRICITY>.0001843</ECCENTRICITY><INCLINATION>86.3996</INCLINATION><RA_OF_ASC_NODE>162.4503</RA_OF_ASC_NODE><ARG_OF_PERICENTER>95.3996</ARG_OF_PERICENTER><MEAN_ANOMALY>264.7411</MEAN_ANOMALY></meanElements><tleParameters><EPHEMERIS_TYPE>0</EPHEMERIS_TYPE><CLASSIFICATION_TYPE>U</CLASSIFICATION_TYPE><NORAD_CAT_ID>41919</NORAD_CAT_ID><ELEMENT_SET_NO>999</ELEMENT_SET_NO><REV_AT_EPOCH>46783</REV_AT_EPOCH><BSTAR>.6488716E-5</BSTAR><MEAN_MOTION_DOT>.38E-6</MEAN_MOTION_DOT><MEAN_MOTION_DDOT>0</MEAN_MOTION_DDOT></tleParameters></data></segment></body></omm>
<omm id="CCSDS_OMM_VERS" version="2.0">
<header><CREATION_DATE/><ORIGINATOR/></header><body><segment><metadata><OBJECT_NAME>IRIDIUM 102</OBJECT_NAME><OBJECT_ID>2017-003D</OBJECT_ID><CENTER_NAME>EARTH</CENTER_NAME><REF_FRAME>TEME</REF_FRAME><TIME_SYSTEM>UTC</TIME_SYSTEM><MEAN_ELEMENT_THEORY>SGP4</MEAN_ELEMENT_THEORY></metadata><data><meanElements><EPOCH>2025-12-22T13:02:02.186304</EPOCH><MEAN_MOTION>14.34217597</MEAN_MOTION><ECCENTRICITY>.00020019</ECCENTRICITY><INCLINATION>86.3989</INCLINATION><RA_OF_ASC_NODE>162.2451</RA_OF_ASC_NODE><ARG_OF_PERICENTER>89.8985</ARG_OF_PERICENTER><MEAN_ANOMALY>270.2440</MEAN_ANOMALY></meanElements><tleParameters><EPHEMERIS_TYPE>0</EPHEMERIS_TYPE><CLASSIFICATION_TYPE>U</CLASSIFICATION_TYPE><NORAD_CAT_ID>41920</NORAD_CAT_ID><ELEMENT_SET_NO>999</ELEMENT_SET_NO><REV_AT_EPOCH>46796</REV_AT_EPOCH><BSTAR>.10931593E-4</BSTAR><MEAN_MOTION_DOT>.5E-6</MEAN_MOTION_DOT><MEAN_MOTION_DDOT>0</MEAN_MOTION_DDOT></tleParameters></data></segment></body></omm>
<omm id="CCSDS_OMM_VERS" version="2.0">
<header><CREATION_DATE/><ORIGINATOR/></header><body><segment><metadata><OBJECT_NAME>IRIDIUM 105</OBJECT_NAME><OBJECT_ID>2017-003E</OBJECT_ID><CENTER_NAME>EARTH</CENTER_NAME><REF_FRAME>TEME</REF_FRAME><TIME_SYSTEM>UTC</TIME_SYSTEM><MEAN_ELEMENT_THEORY>SGP4</MEAN_ELEMENT_THEORY></metadata><data><meanElements><EPOCH>2025-12-22T07:18:30.294720</EPOCH><MEAN_MOTION>14.34217637</MEAN_MOTION><ECCENTRICITY>.00019675</ECCENTRICITY><INCLINATION>86.3985</INCLINATION><RA_OF_ASC_NODE>130.8365</RA_OF_ASC_NODE><ARG_OF_PERICENTER>96.7523</ARG_OF_PERICENTER><MEAN_ANOMALY>263.3897</MEAN_ANOMALY></meanElements><tleParameters><EPHEMERIS_TYPE>0</EPHEMERIS_TYPE><CLASSIFICATION_TYPE>U</CLASSIFICATION_TYPE><NORAD_CAT_ID>41921</NORAD_CAT_ID><ELEMENT_SET_NO>999</ELEMENT_SET_NO><REV_AT_EPOCH>46978</REV_AT_EPOCH><BSTAR>.10230179E-3</BSTAR><MEAN_MOTION_DOT>.306E-5</MEAN_MOTION_DOT><MEAN_MOTION_DDOT>0</MEAN_MOTION_DDOT></tleParameters></data></segment></body></omm>
<omm id="CCSDS_OMM_VERS" version="2.0">
<header><CREATION_DATE/><ORIGINATOR/></header><body><segment><metadata><OBJECT_NAME>IRIDIUM 104</OBJECT_NAME><OBJECT_ID>2017-003F</OBJECT_ID><CENTER_NAME>EARTH</CENTER_NAME><REF_FRAME>TEME</REF_FRAME><TIME_SYSTEM>UTC</TIME_SYSTEM><MEAN_ELEMENT_THEORY>SGP4</MEAN_ELEMENT_THEORY></metadata><data><meanElements><EPOCH>2025-12-22T11:39:50.135616</EPOCH><MEAN_MOTION>14.34217082</MEAN_MOTION><ECCENTRICITY>.00015514</ECCENTRICITY><INCLINATION>86.3994</INCLINATION><RA_OF_ASC_NODE>162.3089</RA_OF_ASC_NODE><ARG_OF_PERICENTER>93.7658</ARG_OF_PERICENTER><MEAN_ANOMALY>266.3715</MEAN_ANOMALY></meanElements><tleParameters><EPHEMERIS_TYPE>0</EPHEMERIS_TYPE><CLASSIFICATION_TYPE>U</CLASSIFICATION_TYPE><NORAD_CAT_ID>41922</NORAD_CAT_ID><ELEMENT_SET_NO>999</ELEMENT_SET_NO><REV_AT_EPOCH>46794</REV_AT_EPOCH><BSTAR>-.1403192E-4</BSTAR><MEAN_MOTION_DOT>-.2E-6</MEAN_MOTION_DOT><MEAN_MOTION_DDOT>0</MEAN_MOTION_DDOT></tleParameters></data></segment></body></omm>
<omm id="CCSDS_OMM_VERS" version="2.0">
<header><CREATION_DATE/><ORIGINATOR/></header><body><segment><metadata><OBJECT_NAME>IRIDIUM 114</OBJECT_NAME><OBJECT_ID>2017-003G</OBJECT_ID><CENTER_NAME>EARTH</CENTER_NAME><REF_FRAME>TEME</REF_FRAME><TIME_SYSTEM>UTC</TIME_SYSTEM><MEAN_ELEMENT_THEORY>SGP4</MEAN_ELEMENT_THEORY></metadata><data><meanElements><EPOCH>2025-12-22T11:48:57.661920</EPOCH><MEAN_MOTION>14.34216890</MEAN_MOTION><ECCENTRICITY>.00018568</ECCENTRICITY><INCLINATION>86.3990</INCLINATION><RA_OF_ASC_NODE>162.2900</RA_OF_ASC_NODE><ARG_OF_PERICENTER>94.8171</ARG_OF_PERICENTER><MEAN_ANOMALY>265.3237</MEAN_ANOMALY></meanElements><tleParameters><EPHEMERIS_TYPE>0</EPHEMERIS_TYPE><CLASSIFICATION_TYPE>U</CLASSIFICATION_TYPE><NORAD_CAT_ID>41923</NORAD_CAT_ID><ELEMENT_SET_NO>999</ELEMENT_SET_NO><REV_AT_EPOCH>46792</REV_AT_EPOCH><BSTAR>-.3022693E-5</BSTAR><MEAN_MOTION_DOT>.11E-6</MEAN_MOTION_DOT><MEAN_MOTION_DDOT>0</MEAN_MOTION_DDOT></tleParameters></data></segment></body></omm>
<omm id="CCSDS_OMM_VERS" version="2.0">
<header><CREATION_DATE/><ORIGINATOR/></header><body><segment><metadata><OBJECT_NAME>IRIDIUM 108</OBJECT_NAME><OBJECT_ID>2017-003H</OBJECT_ID><CENTER_NAME>EARTH</CENTER_NAME><REF_FRAME>TEME</REF_FRAME><TIME_SYSTEM>UTC</TIME_SYSTEM><MEAN_ELEMENT_THEORY>SGP4</MEAN_ELEMENT_THEORY></metadata><data><meanElements><EPOCH>2025-12-22T09:08:46.471488</EPOCH><MEAN_MOTION>14.34218434</MEAN_MOTION><ECCENTRICITY>.00020934</ECCENTRICITY><INCLINATION>86.3973</INCLINATION><RA_OF_ASC_NODE>130.6939</RA_OF_ASC_NODE><ARG_OF_PERICENTER>89.5732</ARG_OF_PERICENTER><MEAN_ANOMALY>270.5704</MEAN_ANOMALY></meanElements><tleParameters><EPHEMERIS_TYPE>0</EPHEMERIS_TYPE><CLASSIFICATION_TYPE>U</CLASSIFICATION_TYPE><NORAD_CAT_ID>41924</NORAD_CAT_ID><ELEMENT_SET_NO>999</ELEMENT_SET_NO><REV_AT_EPOCH>46976</REV_AT_EPOCH><BSTAR>.79268785E-4</BSTAR><MEAN_MOTION_DOT>.242E-5</MEAN_MOTION_DOT><MEAN_MOTION_DDOT>0</MEAN_MOTION_DDOT></tleParameters></data></segment></body></omm>

</ndm>
